SL-16 R/B               
1 22566U 93016B   25342.60581866 -.00000153  00000+0 -54054-4 0  9998
2 22566  71.0087  46.4862 0007826 105.4696 254.7292 14.15287549689280
COSMOS 2242             
1 22626U 93024A   25342.55591729  .00003371  00000+0  29718-3 0  9998
2 22626  82.5187 353.8437 0014801 249.7104 110.2527 14.96080464766767
SL-16 R/B               
1 22803U 93059B   25342.85011560  .00000122  00000+0  84048-4 0  9995
2 22803  70.9897 202.6883 0017757 341.1491  18.8973 14.17213396666669
ARIANE 40 R/B           
1 22830U 93061H   25342.77741947  .00000574  00000+0  22617-3 0  9992
2 22830  98.5081  48.3794 0010647 187.6172 172.4853 14.32797978681083
COSMOS 2278             
1 23087U 94023A   25342.78747058 -.00000078  00000+0 -15973-4 0  9995
2 23087  71.0547   5.2801 0008528 185.9875 174.1147 14.14351329631950
SL-16 R/B               
1 23088U 94023B   25342.94612430  .00000209  00000+0  13231-3 0  9997
2 23088  71.0010 261.4520 0001185  43.2470 316.8746 14.15001761633257
SL-16 R/B               
1 23343U 94074B   25342.84029404  .00001007  00000+0  14195-3 0  9996
2 23343  97.7204  12.2997 0007273 147.0019  25.9405 14.79283686673811
SL-16 R/B               
1 23405U 94077B   25342.96311228  .00000235  00000+0  14451-3 0  9996
2 23405  70.9812 183.3590 0004592 286.8746  73.1873 14.15547312603396
ARIANE 40+ R/B          
1 23561U 95021B   25342.78453182  .00000690  00000+0  23421-3 0  9997
2 23561  98.4655  50.4210 0007631  60.3501  49.5530 14.39691539606165
SL-16 R/B               
1 23705U 95058B   25342.82428042  .00000259  00000+0  15670-3 0  9997
2 23705  71.0225  11.0249 0014924 260.0744  99.8694 14.15482571554991
SL-16 R/B               
1 24298U 96051B   25342.80586741  .00000059  00000+0  58438-4 0  9996
2 24298  70.7596   7.6111 0019328 266.1734  93.7176 14.12396162508819
ORBVIEW 2 (SEASTAR)     
1 24883U 97037A   25342.94206709  .00000518  00000+0  19663-3 0  9995
2 24883  98.8455 139.9210 0001841 354.1114   6.0049 14.35412477495458
